{
  "type": "FeatureCollection",
  "features": [
    {
      "type": "Feature",
      "properties": {
        "norad_id": 43260,
        "name": "GAOFEN-1 03",
        "group": "resource",
        "lat": -58.20127054735294,
        "lon": 52.5208844308947,
        "alt_km": 646.5355979761052,
        "timestamp": "2025-12-07T14:37:04.867044+00:00",
        "meta_object_name": "GAOFEN-1 03",
        "meta_object_id": "2018-031B",
        "meta_epoch": "2025-12-06T22:37:11.962848",
        "meta_mean_motion": 14.76418292,
        "meta_eccentricity": 0.00023794,
        "meta_inclination": 98.0807,
        "meta_ra_of_asc_node": 38.607,
        "meta_arg_of_pericenter": 346.2122,
        "meta_mean_anomaly": 13.9023,
        "meta_ephemeris_type": 0,
        "meta_classification_type": "U",
        "meta_norad_cat_id": 43260,
        "meta_element_set_no": 999,
        "meta_rev_at_epoch": 41432,
        "meta_bstar": 0.00026312314,
        "meta_mean_motion_dot": 1.777e-05,
        "meta_mean_motion_ddot": 0,
        "tle_line1": "1 43260U 18031B   25340.94249957  .00001777  00000+0  26312-3 0  9999",
        "tle_line2": "2 43260  98.0807  38.6070 0002379 346.2122  13.9023 14.76418292414320"
      },
      "geometry": {
        "type": "Point",
        "coordinates": [
          52.5208844308947,
          -58.20127054735294
        ]
      }
    },
    {
      "type": "Feature",
      "properties": {
        "norad_id": 43262,
        "name": "GAOFEN-1 04",
        "group": "resource",
        "lat": 68.53010559252391,
        "lon": 18.265191973311214,
        "alt_km": 633.093723033242,
        "timestamp": "2025-12-07T14:37:04.867054+00:00",
        "meta_object_name": "GAOFEN-1 04",
        "meta_object_id": "2018-031D",
        "meta_epoch": "2025-12-06T22:02:12.386688",
        "meta_mean_motion": 14.76431559,
        "meta_eccentricity": 0.00012236,
        "meta_inclination": 98.0813,
        "meta_ra_of_asc_node": 38.7514,
        "meta_arg_of_pericenter": 62.0244,
        "meta_mean_anomaly": 298.1089,
        "meta_ephemeris_type": 0,
        "meta_classification_type": "U",
        "meta_norad_cat_id": 43262,
        "meta_element_set_no": 999,
        "meta_rev_at_epoch": 41431,
        "meta_bstar": 0.00026097934,
        "meta_mean_motion_dot": 1.763e-05,
        "meta_mean_motion_ddot": 0,
        "tle_line1": "1 43262U 18031D   25340.91819892  .00001763  00000+0  26098-3 0  9995",
        "tle_line2": "2 43262  98.0813  38.7514 0001223  62.0244 298.1089 14.76431559414317"
      },
      "geometry": {
        "type": "Point",
        "coordinates": [
          18.265191973311214,
          68.53010559252391
        ]
      }
    },
    {
      "type": "Feature",
      "properties": {
        "norad_id": 43437,
        "name": "SENTINEL-3B",
        "group": "resource",
        "lat": 71.16993581452188,
        "lon": 20.43116632882567,
        "alt_km": 794.8420466479765,
        "timestamp": "2025-12-07T14:37:04.867064+00:00",
        "meta_object_name": "SENTINEL-3B",
        "meta_object_id": "2018-039A",
        "meta_epoch": "2025-12-06T21:26:42.300096",
        "meta_mean_motion": 14.26739353,
        "meta_eccentricity": 0.00015126,
        "meta_inclination": 98.6273,
        "meta_ra_of_asc_node": 46.1623,
        "meta_arg_of_pericenter": 108.449,
        "meta_mean_anomaly": 251.6855,
        "meta_ephemeris_type": 0,
        "meta_classification_type": "U",
        "meta_norad_cat_id": 43437,
        "meta_element_set_no": 999,
        "meta_rev_at_epoch": 39670,
        "meta_bstar": 0.00013816413,
        "meta_mean_motion_dot": 2.91e-06,
        "meta_mean_motion_ddot": 0,
        "tle_line1": "1 43437U 18039A   25340.89354514  .00000291  00000+0  13816-3 0  9998",
        "tle_line2": "2 43437  98.6273  46.1623 0001512 108.4490 251.6855 14.26739353396705"
      },
      "geometry": {
        "type": "Point",
        "coordinates": [
          20.43116632882567,
          71.16993581452188
        ]
      }
    },
    {
      "type": "Feature",
      "properties": {
        "norad_id": 43461,
        "name": "GAOFEN-5 01",
        "group": "resource",
        "lat": 18.251865014493962,
        "lon": 127.29073355117762,
        "alt_km": 693.119864951027,
        "timestamp": "2025-12-07T14:37:04.867074+00:00",
        "meta_object_name": "GAOFEN-5 01",
        "meta_object_id": "2018-043A",
        "meta_epoch": "2025-12-06T21:26:15.655200",
        "meta_mean_motion": 14.6039985,
        "meta_eccentricity": 0.00013446,
        "meta_inclination": 98.4316,
        "meta_ra_of_asc_node": 303.7587,
        "meta_arg_of_pericenter": 0.2651,
        "meta_mean_anomaly": 359.8549,
        "meta_ephemeris_type": 0,
        "meta_classification_type": "U",
        "meta_norad_cat_id": 43461,
        "meta_element_set_no": 999,
        "meta_rev_at_epoch": 40362,
        "meta_bstar": 0.00020668899,
        "meta_mean_motion_dot": 9.52e-06,
        "meta_mean_motion_ddot": 0,
        "tle_line1": "1 43461U 18043A   25340.89323675  .00000952  00000+0  20669-3 0  9992",
        "tle_line2": "2 43461  98.4316 303.7587 0001344   0.2651 359.8549 14.60399850403623"
      },
      "geometry": {
        "type": "Point",
        "coordinates": [
          127.29073355117762,
          18.251865014493962
        ]
      }
    },
    {
      "type": "Feature",
      "properties": {
        "norad_id": 43484,
        "name": "GAOFEN-6",
        "group": "resource",
        "lat": -38.978897080038266,
        "lon": -140.32327597720538,
        "alt_km": 653.9275562299435,
        "timestamp": "2025-12-07T14:37:04.867084+00:00",
        "meta_object_name": "GAOFEN-6",
        "meta_object_id": "2018-048A",
        "meta_epoch": "2025-12-06T22:59:28.594176",
        "meta_mean_motion": 14.76550088,
        "meta_eccentricity": 0.00133002,
        "meta_inclination": 97.8039,
        "meta_ra_of_asc_node": 45.4189,
        "meta_arg_of_pericenter": 80.802,
        "meta_mean_anomaly": 279.4695,
        "meta_ephemeris_type": 0,
        "meta_classification_type": "U",
        "meta_norad_cat_id": 43484,
        "meta_element_set_no": 999,
        "meta_rev_at_epoch": 40502,
        "meta_bstar": 0.00022882612,
        "meta_mean_motion_dot": 1.549e-05,
        "meta_mean_motion_ddot": 0,
        "tle_line1": "1 43484U 18048A   25340.95796984  .00001549  00000+0  22883-3 0  9999",
        "tle_line2": "2 43484  97.8039  45.4189 0013300  80.8020 279.4695 14.76550088405024"
      },
      "geometry": {
        "type": "Point",
        "coordinates": [
          -140.32327597720538,
          -38.978897080038266
        ]
      }
    },
    {
      "type": "Feature",
      "properties": {
        "norad_id": 43585,
        "name": "GAOFEN-11 01",
        "group": "resource",
        "lat": 51.2950851563916,
        "lon": -126.39097445652841,
        "alt_km": 417.7299723388005,
        "timestamp": "2025-12-07T14:37:04.867094+00:00",
        "meta_object_name": "GAOFEN-11 01",
        "meta_object_id": "2018-063A",
        "meta_epoch": "2025-12-06T22:33:46.413792",
        "meta_mean_motion": 15.48980301,
        "meta_eccentricity": 0.00046591,
        "meta_inclination": 97.1565,
        "meta_ra_of_asc_node": 43.9242,
        "meta_arg_of_pericenter": 339.5235,
        "meta_mean_anomaly": 20.5829,
        "meta_ephemeris_type": 0,
        "meta_classification_type": "U",
        "meta_norad_cat_id": 43585,
        "meta_element_set_no": 999,
        "meta_rev_at_epoch": 41052,
        "meta_bstar": 0.00038915046,
        "meta_mean_motion_dot": 0.00020986,
        "meta_mean_motion_ddot": 0,
        "tle_line1": "1 43585U 18063A   25340.94012053  .00020986  00000+0  38915-3 0  9994",
        "tle_line2": "2 43585  97.1565  43.9242 0004659 339.5235  20.5829 15.48980301410525"
      },
      "geometry": {
        "type": "Point",
        "coordinates": [
          -126.39097445652841,
          51.2950851563916
        ]
      }
    },
    {
      "type": "Feature",
      "properties": {
        "norad_id": 43613,
        "name": "ICESAT-2",
        "group": "resource",
        "lat": -69.62748223214342,
        "lon": 53.93887466414917,
        "alt_km": 488.5697170580288,
        "timestamp": "2025-12-07T14:37:04.867105+00:00",
        "meta_object_name": "ICESAT-2",
        "meta_object_id": "2018-070A",
        "meta_epoch": "2025-12-06T23:23:04.392096",
        "meta_mean_motion": 15.28183791,
        "meta_eccentricity": 0.00018122,
        "meta_inclination": 92.005,
        "meta_ra_of_asc_node": 239.1809,
        "meta_arg_of_pericenter": 162.0047,
        "meta_mean_anomaly": 198.1267,
        "meta_ephemeris_type": 0,
        "meta_classification_type": "U",
        "meta_norad_cat_id": 43613,
        "meta_element_set_no": 999,
        "meta_rev_at_epoch": 40310,
        "meta_bstar": 0.00068478647,
        "meta_mean_motion_dot": 0.00018822,
        "meta_mean_motion_ddot": 0,
        "tle_line1": "1 43613U 18070A   25340.97435639  .00018822  00000+0  68479-3 0  9990",
        "tle_line2": "2 43613  92.0050 239.1809 0001812 162.0047 198.1267 15.28183791403106"
      },
      "geometry": {
        "type": "Point",
        "coordinates": [
          53.93887466414917,
          -69.62748223214342
        ]
      }
    }
  ]
}